[{"OBJECT_NAME":"VSP RF C1","OBJECT_ID":"2024-043AQ","EPOCH":"2026-03-09T21:56:05.358624","MEAN_MOTION":15.29409663,"ECCENTRICITY":0.00093965,"INCLINATION":97.5441,"RA_OF_ASC_NODE":205.1792,"ARG_OF_PERICENTER":219.6172,"MEAN_ANOMALY":140.4382,"EPHEMERIS_TYPE":0,"CLASSIFICATION_TYPE":"U","NORAD_CAT_ID":59136,"ELEMENT_SET_NO":999,"REV_AT_EPOCH":11190,"BSTAR":0.00026222052,"MEAN_MOTION_DOT":7.409e-5,"MEAN_MOTION_DDOT":0},{"OBJECT_NAME":"STARLINK-36142","OBJECT_ID":"2025-288Y","EPOCH":"2026-03-09T22:28:07.109760","MEAN_MOTION":15.27581229,"ECCENTRICITY":0.00013217,"INCLINATION":42.999,"RA_OF_ASC_NODE":22.1857,"ARG_OF_PERICENTER":245.7246,"MEAN_ANOMALY":114.3468,"EPHEMERIS_TYPE":0,"CLASSIFICATION_TYPE":"U","NORAD_CAT_ID":66981,"ELEMENT_SET_NO":999,"REV_AT_EPOCH":1532,"BSTAR":0.0011063281,"MEAN_MOTION_DOT":0.00030308,"MEAN_MOTION_DDOT":0}]
